GLOBALSTAR M094         
1 39074U 13005C   24302.88017587 -.00000066  00000+0  21093-3 0  9997
2 39074  51.9935 166.3788 0001168  90.8259 269.2742 12.62264424543169
GLOBALSTAR M096         
1 39075U 13005D   24302.81414327 -.00000066  00000+0  21279-3 0  9990
2 39075  52.0066 214.9129 0001035  76.5647 283.5335 12.62263484542072
GLOBALSTAR M078         
1 39076U 13005E   24302.70815726 -.00000077  00000+0  14779-3 0  9996
2 39076  51.9876 300.0581 0001300  40.0330 320.0632 12.62276774540687
GLOBALSTAR M095         
1 39077U 13005F   24302.89340234 -.00000075  00000+0  16071-3 0  9999
2 39077  51.9800 296.8085 0001007  66.0848 294.0124 12.62266999540563
GLOBALSTAR M087         
1 52888U 22064A   24302.78713929 -.00000081  00000+0  90776-4 0  9994
2 52888  51.9745 102.5159 0009031 348.7712  11.2986 13.37591214115406
